{"type": "FeatureCollection", "features": [ {"type": "Feature", "properties": {"norad_id": 39019, "name": "PLEIADES 1B", "group": "resource", "lat": 36.48177872948654, "lon": 57.76672946931653, "alt_km": 694.682784206525, "timestamp": "2025-12-17T07:00:46.548506+00:00", "meta": {"OBJECT_NAME": "PLEIADES 1B", "OBJECT_ID": "2012-068A", "EPOCH": "2025-12-17T00:15:30.552192", "MEAN_MOTION": 14.58557005, "ECCENTRICITY": 0.00011895, "INCLINATION": 98.1793, "RA_OF_ASC_NODE": 63.5951, "ARG_OF_PERICENTER": 83.2587, "MEAN_ANOMALY": 276.8747, "EPHEMERIS_TYPE": 0, "CLASSIFICATION_TYPE": "U", "NORAD_CAT_ID": 39019, "ELEMENT_SET_NO": 999, "REV_AT_EPOCH": 69429, "BSTAR": 8.2518578e-05, "MEAN_MOTION_DOT": 3.38e-06, "MEAN_MOTION_DDOT": 0}, "tle": {"line1": "1 39019U 12068A   25351.01077028  .00000338  00000+0  82519-4 0  9992", "line2": "2 39019  98.1793  63.5951 0001189  83.2587 276.8747 14.58557005694293"}}, "geometry": {"type": "Point", "coordinates": [57.76672946931653, 36.48177872948654]}}, {"type": "Feature", "properties": {"norad_id": 39030, "name": "GOKTURK 2", "group": "resource", "lat": 13.616322649878141, "lon": 14.596917712973966, "alt_km": 644.909936164544, "timestamp": "2025-12-17T07:00:46.548517+00:00", "meta": {"OBJECT_NAME": "GOKTURK 2", "OBJECT_ID": "2012-073A", "EPOCH": "2025-12-16T23:45:04.362048", "MEAN_MOTION": 14.75296465, "ECCENTRICITY": 0.00011176, "INCLINATION": 97.6894, "RA_OF_ASC_NODE": 192.4339, "ARG_OF_PERICENTER": 106.6141, "MEAN_ANOMALY": 253.5192, "EPHEMERIS_TYPE": 0, "CLASSIFICATION_TYPE": "U", "NORAD_CAT_ID": 39030, "ELEMENT_SET_NO": 999, "REV_AT_EPOCH": 69764, "BSTAR": 4.9277061e-05, "MEAN_MOTION_DOT": 2.87e-06, "MEAN_MOTION_DDOT": 0}, "tle": {"line1": "1 39030U 12073A   25350.98963382  .00000287  00000+0  49277-4 0  9990", "line2": "2 39030  97.6894 192.4339 0001117 106.6141 253.5192 14.75296465697648"}}, "geometry": {"type": "Point", "coordinates": [14.596917712973966, 13.616322649878141]}}, {"type": "Feature", "properties": {"norad_id": 39084, "name": "LANDSAT 8", "group": "resource", "lat": -3.608535408079067, "lon": -121.22302968704125, "alt_km": 705.978721232771, "timestamp": "2025-12-17T07:00:46.548527+00:00", "meta": {"OBJECT_NAME": "LANDSAT 8", "OBJECT_ID": "2013-008A", "EPOCH": "2025-12-16T23:34:52.224960", "MEAN_MOTION": 14.57118252, "ECCENTRICITY": 0.00010616, "INCLINATION": 98.2069, "RA_OF_ASC_NODE": 58.9934, "ARG_OF_PERICENTER": 90.9881, "MEAN_ANOMALY": 269.1439, "EPHEMERIS_TYPE": 0, "CLASSIFICATION_TYPE": "U", "NORAD_CAT_ID": 39084, "ELEMENT_SET_NO": 999, "REV_AT_EPOCH": 67136, "BSTAR": 9.3160472e-05, "MEAN_MOTION_DOT": 3.75e-06, "MEAN_MOTION_DDOT": 0}, "tle": {"line1": "1 39084U 13008A   25350.98254890  .00000375  00000+0  93160-4 0  9993", "line2": "2 39084  98.2069  58.9934 0001061  90.9881 269.1439 14.57118252671364"}}, "geometry": {"type": "Point", "coordinates": [-121.22302968704125, -3.608535408079067]}}, {"type": "Feature", "properties": {"norad_id": 39086, "name": "SARAL", "group": "resource", "lat": 48.513588960424485, "lon": 4.958251782926016, "alt_km": 776.3335567473277, "timestamp": "2025-12-17T07:00:46.548538+00:00", "meta": {"OBJECT_NAME": "SARAL", "OBJECT_ID": "2013-009A", "EPOCH": "2025-12-16T23:42:03.975264", "MEAN_MOTION": 14.32758523, "ECCENTRICITY": 0.00029322, "INCLINATION": 98.5502, "RA_OF_ASC_NODE": 174.8625, "ARG_OF_PERICENTER": 100.6299, "MEAN_ANOMALY": 259.5215, "EPHEMERIS_TYPE": 0, "CLASSIFICATION_TYPE": "U", "NORAD_CAT_ID": 39086, "ELEMENT_SET_NO": 999, "REV_AT_EPOCH": 66951, "BSTAR": 5.6345766e-05, "MEAN_MOTION_DOT": 1.1e-06, "MEAN_MOTION_DDOT": 0}, "tle": {"line1": "1 39086U 13009A   25350.98754601  .00000110  00000+0  56346-4 0  9993", "line2": "2 39086  98.5502 174.8625 0002932 100.6299 259.5215 14.32758523669519"}}, "geometry": {"type": "Point", "coordinates": [4.958251782926016, 48.513588960424485]}}, {"type": "Feature", "properties": {"norad_id": 39150, "name": "GAOFEN-1", "group": "resource", "lat": -80.5054556680686, "lon": -174.61155992465373, "alt_km": 656.8692479412712, "timestamp": "2025-12-17T07:00:46.548548+00:00", "meta": {"OBJECT_NAME": "GAOFEN-1", "OBJECT_ID": "2013-018A", "EPOCH": "2025-12-16T23:18:47.211264", "MEAN_MOTION": 14.76542454, "ECCENTRICITY": 0.00184026, "INCLINATION": 97.9326, "RA_OF_ASC_NODE": 61.5559, "ARG_OF_PERICENTER": 129.9225, "MEAN_ANOMALY": 230.3606, "EPHEMERIS_TYPE": 0, "CLASSIFICATION_TYPE": "U", "NORAD_CAT_ID": 39150, "ELEMENT_SET_NO": 999, "REV_AT_EPOCH": 68135, "BSTAR": 0.00012376795, "MEAN_MOTION_DOT": 8.14e-06, "MEAN_MOTION_DDOT": 0}, "tle": {"line1": "1 39150U 13018A   25350.97137976  .00000814  00000+0  12377-3 0  9990", "line2": "2 39150  97.9326  61.5559 0018402 129.9225 230.3606 14.76542454681357"}}, "geometry": {"type": "Point", "coordinates": [-174.61155992465373, -80.5054556680686]}}, {"type": "Feature", "properties": {"norad_id": 39160, "name": "VNREDSAT 1", "group": "resource", "lat": 42.32613741968728, "lon": -126.29182664090062, "alt_km": 673.4083083281694, "timestamp": "2025-12-17T07:00:46.548559+00:00", "meta": {"OBJECT_NAME": "VNREDSAT 1", "OBJECT_ID": "2013-021B", "EPOCH": "2025-12-16T23:49:55.996608", "MEAN_MOTION": 14.64929313, "ECCENTRICITY": 0.00012392, "INCLINATION": 97.9375, "RA_OF_ASC_NODE": 46.1191, "ARG_OF_PERICENTER": 78.4375, "MEAN_ANOMALY": 281.6967, "EPHEMERIS_TYPE": 0, "CLASSIFICATION_TYPE": "U", "NORAD_CAT_ID": 39160, "ELEMENT_SET_NO": 999, "REV_AT_EPOCH": 67361, "BSTAR": 0.00010572641, "MEAN_MOTION_DOT": 5.2e-06, "MEAN_MOTION_DDOT": 0}, "tle": {"line1": "1 39160U 13021B   25350.99300922  .00000520  00000+0  10573-3 0  9990", "line2": "2 39160  97.9375  46.1191 0001239  78.4375 281.6967 14.64929313673616"}}, "geometry": {"type": "Point", "coordinates": [-126.29182664090062, 42.32613741968728]}}, {"type": "Feature", "properties": {"norad_id": 39227, "name": "ARIRANG-5 (KOMPSAT-5)", "group": "resource", "lat": 36.25075001219966, "lon": 1.1598045846743514, "alt_km": 550.9466004074739, "timestamp": "2025-12-17T07:00:46.548569+00:00", "meta": {"OBJECT_NAME": "ARIRANG-5 (KOMPSAT-5)", "OBJECT_ID": "2013-042A", "EPOCH": "2025-12-16T23:59:37.404672", "MEAN_MOTION": 15.04524495, "ECCENTRICITY": 0.00034792, "INCLINATION": 97.6146, "RA_OF_ASC_NODE": 175.2422, "ARG_OF_PERICENTER": 43.3908, "MEAN_ANOMALY": 316.7592, "EPHEMERIS_TYPE": 0, "CLASSIFICATION_TYPE": "U", "NORAD_CAT_ID": 39227, "ELEMENT_SET_NO": 999, "REV_AT_EPOCH": 67646, "BSTAR": 0.00017400852, "MEAN_MOTION_DOT": 2.377e-05, "MEAN_MOTION_DDOT": 0}, "tle": {"line1": "1 39227U 13042A   25350.99973848  .00002377  00000+0  17401-3 0  9999", "line2": "2 39227  97.6146 175.2422 0003479  43.3908 316.7592 15.04524495676462"}}, "geometry": {"type": "Point", "coordinates": [1.1598045846743514, 36.25075001219966]}}, {"type": "Feature", "properties": {"norad_id": 39418, "name": "SKYSAT-A", "group": "resource", "lat": -82.10751020879928, "lon": 111.23200521943558, "alt_km": 529.7547954325219, "timestamp": "2025-12-17T07:00:46.548580+00:00", "meta": {"OBJECT_NAME": "SKYSAT-A", "OBJECT_ID": "2013-066C", "EPOCH": "2025-12-16T17:06:02.001888", "MEAN_MOTION": 15.11632586, "ECCENTRICITY": 0.00209724, "INCLINATION": 97.4108, "RA_OF_ASC_NODE": 40.8006, "ARG_OF_PERICENTER": 222.1384, "MEAN_ANOMALY": 137.8235, "EPHEMERIS_TYPE": 0, "CLASSIFICATION_TYPE": "U", "NORAD_CAT_ID": 39418, "ELEMENT_SET_NO": 999, "REV_AT_EPOCH": 66090, "BSTAR": 0.00016298623, "MEAN_MOTION_DOT": 2.72e-05, "MEAN_MOTION_DDOT": 0}, "tle": {"line1": "1 39418U 13066C   25350.71252317  .00002720  00000+0  16299-3 0  9994", "line2": "2 39418  97.4108  40.8006 0020972 222.1384 137.8235 15.11632586660904"}}, "geometry": {"type": "Point", "coordinates": [111.23200521943558, -82.10751020879928]}}, {"type": "Feature", "properties": {"norad_id": 39419, "name": "DUBAISAT-2", "group": "resource", "lat": 1.5789311118087181, "lon": -18.647147389573203, "alt_km": 540.1185939166608, "timestamp": "2025-12-17T07:00:46.548590+00:00", "meta": {"OBJECT_NAME": "DUBAISAT-2", "OBJECT_ID": "2013-066D", "EPOCH": "2025-12-16T23:02:43.528128", "MEAN_MOTION": 15.08399021, "ECCENTRICITY": 0.00100952, "INCLINATION": 97.4445, "RA_OF_ASC_NODE": 341.2376, "ARG_OF_PERICENTER": 306.0683, "MEAN_ANOMALY": 53.961, "EPHEMERIS_TYPE": 0, "CLASSIFICATION_TYPE": "U", "NORAD_CAT_ID": 39419, "ELEMENT_SET_NO": 999, "REV_AT_EPOCH": 65890, "BSTAR": 0.00018901759, "MEAN_MOTION_DOT": 2.881e-05, "MEAN_MOTION_DDOT": 0}, "tle": {"line1": "1 39419U 13066D   25350.96022602  .00002881  00000+0  18902-3 0  9995", "line2": "2 39419  97.4445 341.2376 0010095 306.0683  53.9610 15.08399021658908"}}, "geometry": {"type": "Point", "coordinates": [-18.647147389573203, 1.5789311118087181]}}, {"type": "Feature", "properties": {"norad_id": 39574, "name": "GPM-CORE", "group": "resource", "lat": 20.732517910477466, "lon": -152.37658544269567, "alt_km": 436.50111718554217, "timestamp": "2025-12-17T07:00:46.548601+00:00", "meta": {"OBJECT_NAME": "GPM-CORE", "OBJECT_ID": "2014-009C", "EPOCH": "2025-12-16T23:08:37.179744", "MEAN_MOTION": 15.44530341, "ECCENTRICITY": 0.00095878, "INCLINATION": 64.9727, "RA_OF_ASC_NODE": 198.5345, "ARG_OF_PERICENTER": 246.7119, "MEAN_ANOMALY": 113.3013, "EPHEMERIS_TYPE": 0, "CLASSIFICATION_TYPE": "U", "NORAD_CAT_ID": 39574, "ELEMENT_SET_NO": 999, "REV_AT_EPOCH": 66966, "BSTAR": 0.00014557742, "MEAN_MOTION_DOT": 6.551e-05, "MEAN_MOTION_DDOT": 0}, "tle": {"line1": "1 39574U 14009C   25350.96431921  .00006551  00000+0  14558-3 0  9994", "line2": "2 39574  64.9727 198.5345 0009587 246.7119 113.3013 15.44530341669664"}}, "geometry": {"type": "Point", "coordinates": [-152.37658544269567, 20.732517910477466]}}]}